*******************************************************************************
JPL/HORIZONS                2793 Valdaj (1977 QV)          2023-Sep-04 11:19:57
Rec #:    2793 (+COV) Soln.date: 2023-Aug-23_02:13:06   # obs: 3167 (1949-2023)
 
IAU76/J2000 helio. ecliptic osc. elements (au, days, deg., period=Julian yrs):
 
  EPOCH=  2457702.5 ! 2016-Nov-10.00 (TDB)         Residual RMS= .23046
   EC= .03045670641918194  QR= 3.071107653972414   TP= 2456817.0213519288
   OM= 356.3602803230735   W=  186.9286629936398   IN= 22.09854173746757
   A= 3.167581761748751    MA= 154.8069365817516   ADIST= 3.264055869525088
   PER= 5.63767            N= .174828537           ANGMOM= .030601579
   DAN= 3.26331            DDN= 3.07177            L= 182.7843726
   B= -2.6011129           MOID= 2.07656002        TP= 2014-Jun-08.5213519288
 
Asteroid physical parameters (km, seconds, rotational period in hours):
   GM= n.a.                RAD= 13.5515            ROTPER= 10.594
   H= 11.53                G= .150                 B-V= n.a.
                           ALBEDO= .082            STYP= n.a.

ASTEROID comments: 
1: soln ref.= JPL#48, OCC=0
2: source=ORB
*******************************************************************************


*******************************************************************************
Ephemeris / API_USER Mon Sep  4 11:19:57 2023 Pasadena, USA      / Horizons
*******************************************************************************
Target body name: 2793 Valdaj (1977 QV)           {source: JPL#48}
Center body name: Solar System Barycenter (0)     {source: DE441}
Center-site name: BODY CENTER
*******************************************************************************
Start time      : A.D. 2023-Aug-12 00:00:00.0000 TDB
Stop  time      : A.D. 2023-Aug-13 00:00:00.0000 TDB
Step-size       : 2880 minutes
*******************************************************************************
Center geodetic : 0.0, 0.0, 0.0                   {E-lon(deg),Lat(deg),Alt(km)}
Center cylindric: 0.0, 0.0, 0.0                   {E-lon(deg),Dxy(km),Dz(km)}
Center radii    : (undefined)
Small perturbers: Yes                             {source: SB441-N16}
Output units    : KM-S
Calendar mode   : Mixed Julian/Gregorian
Output type     : GEOMETRIC cartesian states
Output format   : 2 (position and velocity)
Reference frame : Ecliptic of J2000.0
*******************************************************************************
Initial IAU76/J2000 heliocentric ecliptic osculating elements (au, days, deg.):
  EPOCH=  2457702.5 ! 2016-Nov-10.00 (TDB)         Residual RMS= .23046        
   EC= .03045670641918194  QR= 3.071107653972414   TP= 2456817.0213519288      
   OM= 356.3602803230735   W=  186.9286629936398   IN= 22.09854173746757       
  Equivalent ICRF heliocentric cartesian coordinates (au, au/d):
   X= 3.054261267234923E+00  Y=-8.400055705405175E-01  Z=-7.506293030184763E-01
  VX= 3.356513112066138E-03 VY= 6.097795405337190E-03 VZ= 6.319022716707761E-03
Asteroid physical parameters (km, seconds, rotational period in hours):        
   GM= n.a.                RAD= 13.5515            ROTPER= 10.594              
   H= 11.53                G= .150                 B-V= n.a.                   
                           ALBEDO= .082            STYP= n.a.                  
*******************************************************************************
JDTDB
   X     Y     Z
   VX    VY    VZ
*******************************************************************************
$$SOE
2460168.500000000 = A.D. 2023-Aug-12 00:00:00.0000 TDB 
 X = 3.285976275985320E+08 Y = 3.276559648327613E+08 Z = 1.413248785364147E+08
 VX=-1.214593926357172E+01 VY= 1.019638386872345E+01 VZ= 3.805334502556306E+00
$$EOE
*******************************************************************************
 
TIME

  Barycentric Dynamical Time ("TDB" or T_eph) output was requested. This
continuous coordinate time is equivalent to the relativistic proper time
of a clock at rest in a reference frame co-moving with the solar system
barycenter but outside the system's gravity well. It is the independent
variable in the solar system relativistic equations of motion.

  TDB runs at a uniform rate of one SI second per second and is independent
of irregularities in Earth's rotation.
 
CALENDAR SYSTEM

  Mixed calendar mode was active such that calendar dates after AD 1582-Oct-15
(if any) are in the modern Gregorian system. Dates prior to 1582-Oct-5 (if any)
are in the Julian calendar system, which is automatically extended for dates
prior to its adoption on 45-Jan-1 BC.  The Julian calendar is useful for
matching historical dates. The Gregorian calendar more accurately corresponds
to the Earth's orbital motion and seasons. A "Gregorian-only" calendar mode is
available if such physical events are the primary interest.

REFERENCE FRAME AND COORDINATES

  Ecliptic at the standard reference epoch

    Reference epoch: J2000.0
    X-Y plane: adopted Earth orbital plane at the reference epoch
               Note: IAU76 obliquity of 84381.448 arcseconds wrt ICRF X-Y plane
    X-axis   : ICRF
    Z-axis   : perpendicular to the X-Y plane in the directional (+ or -) sense
               of Earth's north pole at the reference epoch.

  Symbol meaning:

    JDTDB    Julian Day Number, Barycentric Dynamical Time
      X      X-component of position vector (km)
      Y      Y-component of position vector (km)
      Z      Z-component of position vector (km)
      VX     X-component of velocity vector (km/sec)                           
      VY     Y-component of velocity vector (km/sec)                           
      VZ     Z-component of velocity vector (km/sec)                           

ABERRATIONS AND CORRECTIONS

 Geometric state vectors have NO corrections or aberrations applied.

Computations by ...

    Solar System Dynamics Group, Horizons On-Line Ephemeris System
    4800 Oak Grove Drive, Jet Propulsion Laboratory
    Pasadena, CA  91109   USA

    General site: https://ssd.jpl.nasa.gov/
    Mailing list: https://ssd.jpl.nasa.gov/email_list.html
    System news : https://ssd.jpl.nasa.gov/horizons/news.html
    User Guide  : https://ssd.jpl.nasa.gov/horizons/manual.html
    Connect     : browser        https://ssd.jpl.nasa.gov/horizons/app.html#/x
                  API            https://ssd-api.jpl.nasa.gov/doc/horizons.html
                  command-line   telnet ssd.jpl.nasa.gov 6775
                  e-mail/batch   https://ssd.jpl.nasa.gov/ftp/ssd/hrzn_batch.txt
                  scripts        https://ssd.jpl.nasa.gov/ftp/ssd/SCRIPTS
    Author      : Jon.D.Giorgini@jpl.nasa.gov
*******************************************************************************
